BIRKELAND               
1 55015U 23001G   26165.22261462  .00010462  00000+0  26369-3 0  9998
2 55015  97.3354 233.1845 0008335 113.6081 246.6041 15.40033807191896
ION SCV-008             
1 55051U 23001AU  26165.22664748  .00006825  00000+0  24773-3 0  9997
2 55051  97.5717 261.4948 0015307  28.7199 331.4880 15.28546334190884
ION SCV-007             
1 55060U 23001BD  26165.15052695  .00000392  00000+0  61953-4 0  9996
2 55060  97.9007 228.2257 0012060 352.4425   7.6602 14.77550998185800
HUYGENS                 
1 55093U 23001CN  26165.22270119  .00009068  00000+0  22866-3 0  9991
2 55093  97.3257 232.4183 0011165  95.3368 264.9153 15.40031607191916
SHARJAHSAT-1            
1 55104U 23001CZ  26165.14123740  .00022541  00000+0  41792-3 0  9992
2 55104  97.3179 233.8650 0007152 111.9487 248.2525 15.48957294192022
HORUS 1                 
1 55690U 23025A   26165.26278240  .00005461  00000+0  23121-3 0  9995
2 55690  97.3470 239.9198 0002351 121.7038 238.4428 15.23576508183602
HORUS 2                 
1 55844U 23032A   26165.29841484  .00005729  00000+0  24371-3 0  9998
2 55844  97.3541 240.7567 0002239 107.9678 252.1804 15.23399346181043
GLOBAL-19               
1 55982U 23041B   26164.85165890  .00012393  00000+0  33063-3 0  9995
2 55982  42.0003 221.3365 0009372 340.1634  19.8840 15.37956970181411
BRO-9                   
1 56185U 23054H   26164.33093152  .00709651  23706-3  12966-2 0  9999
2 56185  97.2935  82.5232 0007327 156.5916 203.5698 16.01367589178472
ION SCV-010             
1 56192U 23054Q   26165.27510009  .00004453  00000+0  17479-3 0  9997
2 56192  97.3788  54.8140 0011872 207.9693 152.0909 15.26174901175751
TELEOS-2                
1 56310U 23057C   26165.29012559  .00000688  00000+0  93467-7 0  9992
2 56310   9.9879 225.2826 0000208 213.6008 146.4192 14.96388073172361
SNIPE 4                 
1 56744U 23072B   26165.29434752  .00020693  00000+0  48271-3 0  9990
2 56744  97.5248  11.2087 0004613 350.9903   9.1260 15.42248307169667
SNIPE 2                 
1 56745U 23072C   26165.28086929  .00024610  00000+0  49301-3 0  9997
2 56745  97.5243  14.2184 0004491  24.7664 335.3800 15.46722073169797
2023-072G               
1 56749U 23072G   26165.28828703  .00028867  00000+0  50793-3 0  9990
2 56749  97.4905  13.0260 0003172  18.6571 341.4796 15.50426583170012
GEISAT PRECURSOR        
1 56934U 23084C   26165.28469663  .00006945  00000+0  20952-3 0  9992
2 56934  97.6216 306.1421 0005228   9.1455 350.9882 15.34615996167084
BLACKJACK ACES-3        
1 56950U 23084U   26165.27061910  .00005206  00000+0  25619-3 0  9996
2 56950  97.6206 300.4391 0002808  44.3445 315.8013 15.18444701166727
BLACKJACK ACES-2        
1 56955U 23084Z   26165.27684917  .00006301  00000+0  30873-3 0  9994
2 56955  97.6202 300.5300 0001141  71.8776 288.2582 15.18512539166730
BLACKJACK ACES-1        
1 56956U 23084AA  26165.26488492  .00007119  00000+0  34773-3 0  9995
2 56956  97.6192 300.2919 0001213 100.9893 259.1477 15.18571943116454
ION SCV-011             
1 56957U 23084AB  26165.25191641  .00005168  00000+0  18750-3 0  9991
2 56957  98.1373 352.2596 0008148  54.8597 305.3403 15.28821035165360
GHOST-3                 
1 56958U 23084AC  26165.31897496  .00016686  00000+0  32301-3 0  9995
2 56958  97.6206 313.7370 0005574 306.1221  53.9512 15.47796817167571
TOMORROW-R2             
1 56962U 23084AG  26164.99338043  .00488282  11466-3  69840-3 0  9996
2 56962  97.6043 328.7636 0008285 243.3625 116.6807 16.05453830168540
AFR-1                   
1 56964U 23084AJ  26165.28646956  .00004348  00000+0  15928-3 0  9999
2 56964  97.6268 301.9074 0010214 357.5061   2.6126 15.28533577166780
METEOR-M2 3             
1 57166U 23091A   26165.28797939  .00000017  00000+0  26067-4 0  9996
2 57166  98.6090 220.3255 0004201 162.8273 197.3049 14.24046583154105
UMKA 1 (RS40S)          
1 57172U 23091G   26165.19886139  .00006176  00000+0  28271-3 0  9994
2 57172  97.5056 223.9073 0014132 126.9272 233.3260 15.20787062163559
2023-091H               
1 57173U 23091H   26165.23722279  .00011599  00000+0  41897-3 0  9998
2 57173  97.5056 228.4050 0011232 121.8861 238.3473 15.28580393163851
2023-091J               
1 57174U 23091J   26165.21408340  .00003930  00000+0  22019-3 0  9992
2 57174  97.5059 218.3528 0014085 152.4284 207.7698 15.13909167163184
CUBEBEL 2 (EU11S)       
1 57175U 23091K   26165.23907900  .00013032  00000+0  46308-3 0  9992
2 57175  97.5059 228.4293 0011253 123.4766 236.7551 15.29087977163850
SITRO-AIS 5 (KATYS)     
1 57176U 23091L   26165.25666776  .00012911  00000+0  45424-3 0  9991
2 57176  97.5067 229.1279 0012770 112.5184 247.7409 15.29397545163893
ZORKIY-2M 1             
1 57177U 23091M   26165.25121100  .00007414  00000+0  33781-3 0  9994
2 57177  97.5096 224.2255 0014691 124.3843 235.8784 15.20868984163551
CUBESX-HSE 3 (RS42S)    
1 57178U 23091N   26165.23304610  .00013320  00000+0  44403-3 0  9998
2 57178  97.5100 230.7826 0012103 103.7558 256.5031 15.31149367163974
