OBJECT_NAME,OBJECT_ID,EPOCH,MEAN_MOTION,ECCENTRICITY,INCLINATION,RA_OF_ASC_NODE,ARG_OF_PERICENTER,MEAN_ANOMALY,EPHEMERIS_TYPE,CLASSIFICATION_TYPE,NORAD_CAT_ID,ELEMENT_SET_NO,REV_AT_EPOCH,BSTAR,MEAN_MOTION_DOT,MEAN_MOTION_DDOT
BIRKELAND,2023-001G,2026-06-14T05:20:33.903168,15.40033807,.00083358,97.3354,233.1845,113.6081,246.6041,0,U,55015,999,19189,.26368979E-3,.10462E-3,0
ION SCV-008,2023-001AU,2026-06-14T05:26:22.342272,15.28546334,.00153078,97.5717,261.4948,28.7199,331.4880,0,U,55051,999,19088,.24773366E-3,.6825E-4,0
ION SCV-007,2023-001BD,2026-06-14T03:36:45.528480,14.77550998,.00120601,97.9007,228.2257,352.4425,7.6602,0,U,55060,999,18580,.61952505E-4,.392E-5,0
HUYGENS,2023-001CN,2026-06-14T05:20:41.382816,15.40031607,.00111658,97.3257,232.4183,95.3368,264.9153,0,U,55093,999,19191,.22866059E-3,.9068E-4,0
SHARJAHSAT-1,2023-001CZ,2026-06-14T03:23:22.911360,15.48957294,.00071523,97.3179,233.8650,111.9487,248.2525,0,U,55104,999,19202,.41792169E-3,.22541E-3,0
HORUS 1,2023-025A,2026-06-14T06:18:24.399360,15.23576508,.00023519,97.3470,239.9198,121.7038,238.4428,0,U,55690,999,18360,.23121327E-3,.5461E-4,0
HORUS 2,2023-032A,2026-06-14T07:09:43.042176,15.23399346,.00022393,97.3541,240.7567,107.9678,252.1804,0,U,55844,999,18104,.24370545E-3,.5729E-4,0
GLOBAL-19,2023-041B,2026-06-13T20:26:23.328960,15.37956970,.00093727,42.0003,221.3365,340.1634,19.8840,0,U,55982,999,18141,.33063156E-3,.12393E-3,0
BRO-9,2023-054H,2026-06-13T07:56:32.483328,16.01367589,.00073271,97.2935,82.5232,156.5916,203.5698,0,U,56185,999,17847,.12965876E-2,.709651E-2,.23706133E-3
ION SCV-010,2023-054Q,2026-06-14T06:36:08.647776,15.26174901,.00118724,97.3788,54.8140,207.9693,152.0909,0,U,56192,999,17575,.17479191E-3,.4453E-4,0
TELEOS-2,2023-057C,2026-06-14T06:57:46.850976,14.96388073,.00002082,9.9879,225.2826,213.6008,146.4192,0,U,56310,999,17236,.93467E-7,.688E-5,0
SNIPE 4,2023-072B,2026-06-14T07:03:51.625728,15.42248307,.00046134,97.5248,11.2087,350.9903,9.1260,0,U,56744,999,16966,.4827086E-3,.20693E-3,0
SNIPE 2,2023-072C,2026-06-14T06:44:27.106656,15.46722073,.00044915,97.5243,14.2184,24.7664,335.3800,0,U,56745,999,16979,.49301146E-3,.2461E-3,0
2023-072G,2023-072G,2026-06-14T06:55:07.999392,15.50426583,.00031729,97.4905,13.0260,18.6571,341.4796,0,U,56749,999,17001,.50792671E-3,.28867E-3,0
GEISAT PRECURSOR,2023-084C,2026-06-14T06:49:57.788832,15.34615996,.00052284,97.6216,306.1421,9.1455,350.9882,0,U,56934,999,16708,.20951935E-3,.6945E-4,0
BLACKJACK ACES-3,2023-084U,2026-06-14T06:29:41.490240,15.18444701,.00028085,97.6206,300.4391,44.3445,315.8013,0,U,56950,999,16672,.25618636E-3,.5206E-4,0
BLACKJACK ACES-2,2023-084Z,2026-06-14T06:38:39.768288,15.18512539,.00011413,97.6202,300.5300,71.8776,288.2582,0,U,56955,999,16673,.30872541E-3,.6301E-4,0
BLACKJACK ACES-1,2023-084AA,2026-06-14T06:21:26.057088,15.18571943,.00012133,97.6192,300.2919,100.9893,259.1477,0,U,56956,999,11645,.34772955E-3,.7119E-4,0
ION SCV-011,2023-084AB,2026-06-14T06:02:45.577824,15.28821035,.00081487,98.1373,352.2596,54.8597,305.3403,0,U,56957,999,16536,.1875018E-3,.5168E-4,0
GHOST-3,2023-084AC,2026-06-14T07:39:19.436544,15.47796817,.00055742,97.6206,313.7370,306.1221,53.9512,0,U,56958,999,16757,.32300572E-3,.16686E-3,0
TOMORROW-R2,2023-084AG,2026-06-13T23:50:28.069152,16.05453830,.00082854,97.6043,328.7636,243.3625,116.6807,0,U,56962,999,16854,.69840297E-3,.488282E-2,.11465976E-3
AFR-1,2023-084AJ,2026-06-14T06:52:30.969984,15.28533577,.00102145,97.6268,301.9074,357.5061,2.6126,0,U,56964,999,16678,.1592846E-3,.4348E-4,0
METEOR-M2 3,2023-091A,2026-06-14T06:54:41.419296,14.24046583,.00042014,98.6090,220.3255,162.8273,197.3049,0,U,57166,999,15410,.26067127E-4,.17E-6,0
UMKA 1 (RS40S),2023-091G,2026-06-14T04:46:21.624096,15.20787062,.0014132,97.5056,223.9073,126.9272,233.3260,0,U,57172,999,16355,.28270809E-3,.6176E-4,0
2023-091H,2023-091H,2026-06-14T05:41:36.049056,15.28580393,.00112325,97.5056,228.4050,121.8861,238.3473,0,U,57173,999,16385,.41897418E-3,.11599E-3,0
2023-091J,2023-091J,2026-06-14T05:08:16.805760,15.13909167,.00140853,97.5059,218.3528,152.4284,207.7698,0,U,57174,999,16318,.22019261E-3,.393E-4,0
CUBEBEL 2 (EU11S),2023-091K,2026-06-14T05:44:16.425600,15.29087977,.00112539,97.5059,228.4293,123.4766,236.7551,0,U,57175,999,16385,.46307534E-3,.13032E-3,0
SITRO-AIS 5 (KATYS),2023-091L,2026-06-14T06:09:36.094464,15.29397545,.001277,97.5067,229.1279,112.5184,247.7409,0,U,57176,999,16389,.45423624E-3,.12911E-3,0
ZORKIY-2M 1,2023-091M,2026-06-14T06:01:44.630400,15.20868984,.00146915,97.5096,224.2255,124.3843,235.8784,0,U,57177,999,16355,.33781064E-3,.7414E-4,0
CUBESX-HSE 3 (RS42S),2023-091N,2026-06-14T05:35:35.183040,15.31149367,.00121039,97.5100,230.7826,103.7558,256.5031,0,U,57178,999,16397,.44403125E-3,.1332E-3,0
